[{"OBJECT_NAME":"ISS (ZARYA)","OBJECT_ID":"1998-067A","EPOCH":"2026-03-02T22:19:59.516544","MEAN_MOTION":15.48408287,"ECCENTRICITY":0.00082151,"INCLINATION":51.6319,"RA_OF_ASC_NODE":105.7724,"ARG_OF_PERICENTER":150.8374,"MEAN_ANOMALY":209.3075,"EPHEMERIS_TYPE":0,"CLASSIFICATION_TYPE":"U","NORAD_CAT_ID":25544,"ELEMENT_SET_NO":999,"REV_AT_EPOCH":55528,"BSTAR":0.00018074912,"MEAN_MOTION_DOT":9.325e-5,"MEAN_MOTION_DDOT":0},{"OBJECT_NAME":"POISK","OBJECT_ID":"2009-060A","EPOCH":"2026-03-02T22:19:59.516544","MEAN_MOTION":15.48408287,"ECCENTRICITY":0.00082151,"INCLINATION":51.6319,"RA_OF_ASC_NODE":105.7724,"ARG_OF_PERICENTER":150.8374,"MEAN_ANOMALY":209.3075,"EPHEMERIS_TYPE":0,"CLASSIFICATION_TYPE":"U","NORAD_CAT_ID":36086,"ELEMENT_SET_NO":999,"REV_AT_EPOCH":55444,"BSTAR":0.00018074912,"MEAN_MOTION_DOT":9.325e-5,"MEAN_MOTION_DDOT":0},{"OBJECT_NAME":"CSS (TIANHE)","OBJECT_ID":"2021-035A","EPOCH":"2026-03-02T19:17:14.095104","MEAN_MOTION":15.60315912,"ECCENTRICITY":0.00066169,"INCLINATION":41.4651,"RA_OF_ASC_NODE":250.0496,"ARG_OF_PERICENTER":230.1207,"MEAN_ANOMALY":129.905,"EPHEMERIS_TYPE":0,"CLASSIFICATION_TYPE":"U","NORAD_CAT_ID":48274,"ELEMENT_SET_NO":999,"REV_AT_EPOCH":27653,"BSTAR":0.00021016754,"MEAN_MOTION_DOT":0.00017409,"MEAN_MOTION_DDOT":0},{"OBJECT_NAME":"ISS (NAUKA)","OBJECT_ID":"2021-066A","EPOCH":"2026-03-02T22:19:59.516544","MEAN_MOTION":15.48408287,"ECCENTRICITY":0.00082151,"INCLINATION":51.6319,"RA_OF_ASC_NODE":105.7724,"ARG_OF_PERICENTER":150.8374,"MEAN_ANOMALY":209.3075,"EPHEMERIS_TYPE":0,"CLASSIFICATION_TYPE":"U","NORAD_CAT_ID":49044,"ELEMENT_SET_NO":999,"REV_AT_EPOCH":55445,"BSTAR":0.00018074912,"MEAN_MOTION_DOT":9.325e-5,"MEAN_MOTION_DDOT":0},{"OBJECT_NAME":"FREGAT DEB","OBJECT_ID":"2011-037PF","EPOCH":"2026-03-02T21:53:36.160512","MEAN_MOTION":12.39761285,"ECCENTRICITY":0.09546779,"INCLINATION":51.6481,"RA_OF_ASC_NODE":321.0766,"ARG_OF_PERICENTER":43.8455,"MEAN_ANOMALY":323.4291,"EPHEMERIS_TYPE":0,"CLASSIFICATION_TYPE":"U","NORAD_CAT_ID":49271,"ELEMENT_SET_NO":999,"REV_AT_EPOCH":21185,"BSTAR":0.047797037,"MEAN_MOTION_DOT":0.00032379,"MEAN_MOTION_DDOT":0},{"OBJECT_NAME":"CSS (WENTIAN)","OBJECT_ID":"2022-085A","EPOCH":"2026-03-02T19:17:14.095104","MEAN_MOTION":15.60315912,"ECCENTRICITY":0.00066169,"INCLINATION":41.4651,"RA_OF_ASC_NODE":250.0496,"ARG_OF_PERICENTER":230.1207,"MEAN_ANOMALY":129.905,"EPHEMERIS_TYPE":0,"CLASSIFICATION_TYPE":"U","NORAD_CAT_ID":53239,"ELEMENT_SET_NO":999,"REV_AT_EPOCH":27561,"BSTAR":0.00021016754,"MEAN_MOTION_DOT":0.00017409,"MEAN_MOTION_DDOT":0},{"OBJECT_NAME":"CSS (MENGTIAN)","OBJECT_ID":"2022-143A","EPOCH":"2026-03-02T19:17:14.095104","MEAN_MOTION":15.60315912,"ECCENTRICITY":0.00066169,"INCLINATION":41.4651,"RA_OF_ASC_NODE":250.0496,"ARG_OF_PERICENTER":230.1207,"MEAN_ANOMALY":129.905,"EPHEMERIS_TYPE":0,"CLASSIFICATION_TYPE":"U","NORAD_CAT_ID":54216,"ELEMENT_SET_NO":999,"REV_AT_EPOCH":27558,"BSTAR":0.00021016754,"MEAN_MOTION_DOT":0.00017409,"MEAN_MOTION_DDOT":0},{"OBJECT_NAME":"PROGRESS-MS 31","OBJECT_ID":"2025-146A","EPOCH":"2026-03-02T22:19:59.516544","MEAN_MOTION":15.48408287,"ECCENTRICITY":0.00082151,"INCLINATION":51.6319,"RA_OF_ASC_NODE":105.7724,"ARG_OF_PERICENTER":150.8374,"MEAN_ANOMALY":209.3075,"EPHEMERIS_TYPE":0,"CLASSIFICATION_TYPE":"U","NORAD_CAT_ID":64751,"ELEMENT_SET_NO":999,"REV_AT_EPOCH":55446,"BSTAR":0.00018074912,"MEAN_MOTION_DOT":9.325e-5,"MEAN_MOTION_DDOT":0},{"OBJECT_NAME":"TIANZHOU-9","OBJECT_ID":"2025-149A","EPOCH":"2026-03-02T19:17:14.095104","MEAN_MOTION":15.60315912,"ECCENTRICITY":0.00066169,"INCLINATION":41.4651,"RA_OF_ASC_NODE":250.0496,"ARG_OF_PERICENTER":230.1207,"MEAN_ANOMALY":129.905,"EPHEMERIS_TYPE":0,"CLASSIFICATION_TYPE":"U","NORAD_CAT_ID":64786,"ELEMENT_SET_NO":999,"REV_AT_EPOCH":27559,"BSTAR":0.00021016754,"MEAN_MOTION_DOT":0.00017409,"MEAN_MOTION_DDOT":0},{"OBJECT_NAME":"PROGRESS-MS 32","OBJECT_ID":"2025-204A","EPOCH":"2026-03-02T22:19:59.516544","MEAN_MOTION":15.48408287,"ECCENTRICITY":0.00082151,"INCLINATION":51.6319,"RA_OF_ASC_NODE":105.7724,"ARG_OF_PERICENTER":150.8374,"MEAN_ANOMALY":209.3075,"EPHEMERIS_TYPE":0,"CLASSIFICATION_TYPE":"U","NORAD_CAT_ID":65586,"ELEMENT_SET_NO":999,"REV_AT_EPOCH":55450,"BSTAR":0.00018074912,"MEAN_MOTION_DOT":9.325e-5,"MEAN_MOTION_DDOT":0},{"OBJECT_NAME":"CYGNUS NG-23","OBJECT_ID":"2025-208A","EPOCH":"2026-03-02T22:19:59.516544","MEAN_MOTION":15.48408287,"ECCENTRICITY":0.00082151,"INCLINATION":51.6319,"RA_OF_ASC_NODE":105.7724,"ARG_OF_PERICENTER":150.8374,"MEAN_ANOMALY":209.3075,"EPHEMERIS_TYPE":0,"CLASSIFICATION_TYPE":"U","NORAD_CAT_ID":65616,"ELEMENT_SET_NO":999,"REV_AT_EPOCH":55451,"BSTAR":0.00018074912,"MEAN_MOTION_DOT":9.325e-5,"MEAN_MOTION_DDOT":0},{"OBJECT_NAME":"ISS OBJECT XK","OBJECT_ID":"1998-067XK","EPOCH":"2026-03-02T07:29:41.162208","MEAN_MOTION":16.0323821,"ECCENTRICITY":0.00063469,"INCLINATION":51.617,"RA_OF_ASC_NODE":85.7436,"ARG_OF_PERICENTER":46.9692,"MEAN_ANOMALY":313.185,"EPHEMERIS_TYPE":0,"CLASSIFICATION_TYPE":"U","NORAD_CAT_ID":65731,"ELEMENT_SET_NO":999,"REV_AT_EPOCH":2571,"BSTAR":0.0013041154,"MEAN_MOTION_DOT":0.00825722,"MEAN_MOTION_DDOT":0.00034643321},{"OBJECT_NAME":"YOTSUBA-KULOVER","OBJECT_ID":"1998-067XN","EPOCH":"2026-03-02T07:12:17.310240","MEAN_MOTION":15.77286449,"ECCENTRICITY":0.00060655,"INCLINATION":51.6217,"RA_OF_ASC_NODE":95.5276,"ARG_OF_PERICENTER":24.4907,"MEAN_ANOMALY":335.6381,"EPHEMERIS_TYPE":0,"CLASSIFICATION_TYPE":"U","NORAD_CAT_ID":65941,"ELEMENT_SET_NO":999,"REV_AT_EPOCH":2233,"BSTAR":0.0010711095,"MEAN_MOTION_DOT":0.00183431,"MEAN_MOTION_DDOT":0},{"OBJECT_NAME":"BOTAN","OBJECT_ID":"1998-067XP","EPOCH":"2026-03-02T10:36:22.696704","MEAN_MOTION":16.19120033,"ECCENTRICITY":0.00050716,"INCLINATION":51.6071,"RA_OF_ASC_NODE":87.3174,"ARG_OF_PERICENTER":45.1501,"MEAN_ANOMALY":314.9928,"EPHEMERIS_TYPE":0,"CLASSIFICATION_TYPE":"U","NORAD_CAT_ID":65942,"ELEMENT_SET_NO":999,"REV_AT_EPOCH":2245,"BSTAR":0.001506489,"MEAN_MOTION_DOT":0.0280854,"MEAN_MOTION_DDOT":1.1844682e-5},{"OBJECT_NAME":"E-KAGAKU-1","OBJECT_ID":"1998-067XQ","EPOCH":"2026-03-02T08:47:57.523200","MEAN_MOTION":15.77064587,"ECCENTRICITY":0.00062856,"INCLINATION":51.6236,"RA_OF_ASC_NODE":95.2365,"ARG_OF_PERICENTER":32.6791,"MEAN_ANOMALY":327.4598,"EPHEMERIS_TYPE":0,"CLASSIFICATION_TYPE":"U","NORAD_CAT_ID":65943,"ELEMENT_SET_NO":999,"REV_AT_EPOCH":2234,"BSTAR":0.0010627711,"MEAN_MOTION_DOT":0.00180153,"MEAN_MOTION_DDOT":0},{"OBJECT_NAME":"HRC MONOBLOCK CAMERA","OBJECT_ID":"1998-067XR","EPOCH":"2026-03-02T09:44:13.048512","MEAN_MOTION":15.61308322,"ECCENTRICITY":0.0003324,"INCLINATION":51.6272,"RA_OF_ASC_NODE":102.271,"ARG_OF_PERICENTER":60.8077,"MEAN_ANOMALY":299.3249,"EPHEMERIS_TYPE":0,"CLASSIFICATION_TYPE":"U","NORAD_CAT_ID":66052,"ELEMENT_SET_NO":999,"REV_AT_EPOCH":2125,"BSTAR":0.00062048736,"MEAN_MOTION_DOT":0.00053624,"MEAN_MOTION_DDOT":0}]
