ISS (ZARYA)             
1 25544U 98067A   26061.93054996  .00009325  00000+0  18075-3 0  9992
2 25544  51.6319 105.7724 0008215 150.8374 209.3075 15.48408287555285
POISK                   
1 36086U 09060A   26061.93054996  .00009325  00000+0  18075-3 0  9990
2 36086  51.6319 105.7724 0008215 150.8374 209.3075 15.48408287554445
CSS (TIANHE)            
1 48274U 21035A   26061.80363536  .00017409  00000+0  21017-3 0  9999
2 48274  41.4651 250.0496 0006616 230.1207 129.9050 15.60315912276530
ISS (NAUKA)             
1 49044U 21066A   26061.93054996  .00009325  00000+0  18075-3 0  9998
2 49044  51.6319 105.7724 0008215 150.8374 209.3075 15.48408287554454
FREGAT DEB              
1 49271U 11037PF  26061.91222408  .00032379  00000+0  47797-1 0  9996
2 49271  51.6481 321.0766 0954677  43.8455 323.4291 12.39761285211857
CSS (WENTIAN)           
1 53239U 22085A   26061.80363536  .00017409  00000+0  21017-3 0  9992
2 53239  41.4651 250.0496 0006616 230.1207 129.9050 15.60315912275615
CSS (MENGTIAN)          
1 54216U 22143A   26061.80363536  .00017409  00000+0  21017-3 0  9993
2 54216  41.4651 250.0496 0006616 230.1207 129.9050 15.60315912275587
PROGRESS-MS 31          
1 64751U 25146A   26061.93054996  .00009325  00000+0  18075-3 0  9993
2 64751  51.6319 105.7724 0008215 150.8374 209.3075 15.48408287554467
TIANZHOU-9              
1 64786U 25149A   26061.80363536  .00017409  00000+0  21017-3 0  9995
2 64786  41.4651 250.0496 0006616 230.1207 129.9050 15.60315912275591
PROGRESS-MS 32          
1 65586U 25204A   26061.93054996  .00009325  00000+0  18075-3 0  9995
2 65586  51.6319 105.7724 0008215 150.8374 209.3075 15.48408287554509
CYGNUS NG-23            
1 65616U 25208A   26061.93054996  .00009325  00000+0  18075-3 0  9993
2 65616  51.6319 105.7724 0008215 150.8374 209.3075 15.48408287554514
ISS OBJECT XK           
1 65731U 98067XK  26061.31228197  .00825722  34643-3  13041-2 0  9990
2 65731  51.6170  85.7436 0006346  46.9692 313.1850 16.03238210 25714
YOTSUBA-KULOVER         
1 65941U 98067XN  26061.30020035  .00183431  00000+0  10711-2 0  9994
2 65941  51.6217  95.5276 0006065  24.4907 335.6381 15.77286449 22338
BOTAN                   
1 65942U 98067XP  26061.44192936  .02808540  11845-4  15065-2 0  9998
2 65942  51.6071  87.3174 0005071  45.1501 314.9928 16.19120033 22452
E-KAGAKU-1              
1 65943U 98067XQ  26061.36663800  .00180153  00000+0  10628-2 0  9990
2 65943  51.6236  95.2365 0006285  32.6791 327.4598 15.77064587 22340
HRC MONOBLOCK CAMERA    
1 66052U 98067XR  26061.40570658  .00053624  00000+0  62049-3 0  9992
2 66052  51.6272 102.2710 0003324  60.8077 299.3249 15.61308322 21256
